{"type": "FeatureCollection", "features": [{"type": "Feature", "geometry": {"type": "Point", "coordinates": [-73.768797, 40.772191]}, "properties": {"park_id": "Q012", "name": "Crocheron Park", "borough": "Q", "court_count": 10, "surfaces": ["Asphalt"], "lighted": false}}, {"type": "Feature", "geometry": {"type": "Point", "coordinates": [-74.036865, 40.612418]}, "properties": {"park_id": "B082", "name": "Shore Park and Parkway", "borough": "B", "court_count": 4, "surfaces": ["Asphalt"], "lighted": false}}, {"type": "Feature", "geometry": {"type": "Point", "coordinates": [-74.016899, 40.606052]}, "properties": {"park_id": "B028", "name": "Dyker Beach Park", "borough": "B", "court_count": 9, "surfaces": ["Asphalt"], "lighted": false}}, {"type": "Feature", "geometry": {"type": "Point", "coordinates": [-73.887592, 40.683967]}, "properties": {"park_id": "B047", "name": "Highland Park", "borough": "Q", "court_count": 18, "surfaces": ["Asphalt"], "lighted": true}}, {"type": "Feature", "geometry": {"type": "Point", "coordinates": [-73.918944, 40.793014]}, "properties": {"park_id": "M104", "name": "Randall's Island Park", "borough": "M", "court_count": 20, "surfaces": ["Clay", "Rubber"], "lighted": true}}, {"type": "Feature", "geometry": {"type": "Point", "coordinates": [-73.975484, 40.690543]}, "properties": {"park_id": "B032", "name": "Fort Greene Park", "borough": "B", "court_count": 6, "surfaces": ["Asphalt"], "lighted": false}}, {"type": "Feature", "geometry": {"type": "Point", "coordinates": [-73.894746, 40.839962]}, "properties": {"park_id": "X010", "name": "Crotona Park", "borough": "X", "court_count": 20, "surfaces": ["Asphalt"], "lighted": true}}, {"type": "Feature", "geometry": {"type": "Point", "coordinates": [-73.744462, 40.661742]}, "properties": {"park_id": "Q008", "name": "Brookville Park", "borough": "Q", "court_count": 6, "surfaces": ["Asphalt"], "lighted": true}}, {"type": "Feature", "geometry": {"type": "Point", "coordinates": [-73.809653, 40.747842]}, "properties": {"park_id": "Q024", "name": "Kissena Park", "borough": "Q", "court_count": 12, "surfaces": ["Asphalt", "Hard Top"], "lighted": false}}, {"type": "Feature", "geometry": {"type": "Point", "coordinates": [-73.924376, 40.775625]}, "properties": {"park_id": "Q004", "name": "Astoria Park", "borough": "Q", "court_count": 14, "surfaces": ["Asphalt"], "lighted": false}}, {"type": "Feature", "geometry": {"type": "Point", "coordinates": [-73.946296, 40.84817]}, "properties": {"park_id": "M028", "name": "Fort Washington Park", "borough": "M", "court_count": 10, "surfaces": ["Asphalt"], "lighted": false}}, {"type": "Feature", "geometry": {"type": "Point", "coordinates": [-74.186713, 40.519435]}, "properties": {"park_id": "R031", "name": "Wolfe's Pond Park", "borough": "R", "court_count": 2, "surfaces": ["Asphalt"], "lighted": false}}, {"type": "Feature", "geometry": {"type": "Point", "coordinates": [-73.736399, 40.739224]}, "properties": {"park_id": "Q001A", "name": "Alley Athletic Playground", "borough": "Q", "court_count": 16, "surfaces": ["Asphalt"], "lighted": false}}, {"type": "Feature", "geometry": {"type": "Point", "coordinates": [-73.816078, 40.854358]}, "properties": {"park_id": "X039", "name": "Pelham Bay Park", "borough": "X", "court_count": 13, "surfaces": ["Asphalt"], "lighted": false}}, {"type": "Feature", "geometry": {"type": "Point", "coordinates": [-73.994376, 40.578399]}, "properties": {"park_id": "B129", "name": "Kaiser Park", "borough": "B", "court_count": 12, "surfaces": ["Asphalt"], "lighted": false}}, {"type": "Feature", "geometry": {"type": "Point", "coordinates": [-73.970141, 40.651267]}, "properties": {"park_id": "B068", "name": "Parade Ground", "borough": "B", "court_count": 11, "surfaces": ["Asphalt", "Clay"], "lighted": false}}, {"type": "Feature", "geometry": {"type": "Point", "coordinates": [-73.939682, 40.577567]}, "properties": {"park_id": "B251", "name": "Manhattan Beach Park", "borough": "B", "court_count": 6, "surfaces": ["Asphalt"], "lighted": false}}, {"type": "Feature", "geometry": {"type": "Point", "coordinates": [-73.962165, 40.789896]}, "properties": {"park_id": "M010", "name": "Central Park", "borough": "M", "court_count": 23, "surfaces": ["Asphalt", "Clay"], "lighted": false}}, {"type": "Feature", "geometry": {"type": "Point", "coordinates": [-73.935543, 40.608554]}, "properties": {"park_id": "B057", "name": "Marine Park", "borough": "B", "court_count": 12, "surfaces": ["Asphalt"], "lighted": false}}, {"type": "Feature", "geometry": {"type": "Point", "coordinates": [-73.921804, 40.869947]}, "properties": {"park_id": "M042", "name": "Inwood Hill Park", "borough": "M", "court_count": 9, "surfaces": ["Asphalt"], "lighted": false}}, {"type": "Feature", "geometry": {"type": "Point", "coordinates": [-73.925222, 40.666803]}, "properties": {"park_id": "B054", "name": "Lincoln Terrace / Arthur S. Somers Park", "borough": "B", "court_count": 11, "surfaces": ["Asphalt"], "lighted": true}}, {"type": "Feature", "geometry": {"type": "Point", "coordinates": [-73.886131, 40.893364]}, "properties": {"park_id": "X092", "name": "Van Cortlandt Park", "borough": "X", "court_count": 12, "surfaces": ["Asphalt"], "lighted": false}}, {"type": "Feature", "geometry": {"type": "Point", "coordinates": [-73.856606, 40.697416]}, "properties": {"park_id": "Q015", "name": "Forest Park", "borough": "Q", "court_count": 14, "surfaces": ["Asphalt"], "lighted": false}}, {"type": "Feature", "geometry": {"type": "Point", "coordinates": [-73.77276, 40.729807]}, "properties": {"park_id": "Q021", "name": "Cunningham Park", "borough": "Q", "court_count": 19, "surfaces": ["Asphalt"], "lighted": true}}, {"type": "Feature", "geometry": {"type": "Point", "coordinates": [-73.913305, 40.812032]}, "properties": {"park_id": "X045", "name": "St. Mary's Park", "borough": "X", "court_count": 3, "surfaces": ["Asphalt"], "lighted": false}}, {"type": "Feature", "geometry": {"type": "Point", "coordinates": [-74.031036, 40.612065]}, "properties": {"park_id": "B210W", "name": "John J Carty Park", "borough": "B", "court_count": 8, "surfaces": ["Asphalt"], "lighted": false}}, {"type": "Feature", "geometry": {"type": "Point", "coordinates": [-73.904019, 40.727431]}, "properties": {"park_id": "Q131", "name": "Frank Principe Park", "borough": "Q", "court_count": 2, "surfaces": ["Asphalt"], "lighted": false}}, {"type": "Feature", "geometry": {"type": "Point", "coordinates": [-73.785019, 40.703655]}, "properties": {"park_id": "Q121", "name": "Detective Keith L Williams Park", "borough": "Q", "court_count": 8, "surfaces": ["Asphalt"], "lighted": false}}, {"type": "Feature", "geometry": {"type": "Point", "coordinates": [-74.099371, 40.627881]}, "properties": {"park_id": "R022", "name": "Silver Lake Park", "borough": "R", "court_count": 4, "surfaces": ["Asphalt"], "lighted": false}}, {"type": "Feature", "geometry": {"type": "Point", "coordinates": [-73.787719, 40.675211]}, "properties": {"park_id": "Q005", "name": "Baisley Pond Park", "borough": "Q", "court_count": 8, "surfaces": ["Asphalt"], "lighted": false}}, {"type": "Feature", "geometry": {"type": "Point", "coordinates": [-73.886871, 40.658416]}, "properties": {"park_id": "B214", "name": "Linden Park", "borough": "B", "court_count": 5, "surfaces": ["Asphalt"], "lighted": false}}, {"type": "Feature", "geometry": {"type": "Point", "coordinates": [-73.783253, 40.598457]}, "properties": {"park_id": "Q371", "name": "Rockaway Community Park", "borough": "Q", "court_count": 4, "surfaces": ["Asphalt"], "lighted": false}}, {"type": "Feature", "geometry": {"type": "Point", "coordinates": [-74.140016, 40.592056]}, "properties": {"park_id": "R129", "name": "Blood Root Valley", "borough": "R", "court_count": 2, "surfaces": ["Hard Top"], "lighted": false}}, {"type": "Feature", "geometry": {"type": "Point", "coordinates": [-73.876757, 40.720366]}, "properties": {"park_id": "Q102", "name": "Juniper Valley Park", "borough": "Q", "court_count": 10, "surfaces": ["Asphalt"], "lighted": false}}, {"type": "Feature", "geometry": {"type": "Point", "coordinates": [-73.76982, 40.685891]}, "properties": {"park_id": "Q448", "name": "Roy Wilkins Recreation Center", "borough": "Q", "court_count": 4, "surfaces": ["Asphalt"], "lighted": false}}, {"type": "Feature", "geometry": {"type": "Point", "coordinates": [-73.787194, 40.744797]}, "properties": {"park_id": "Q300A", "name": "Kissena Corridor Park", "borough": "Q", "court_count": 1, "surfaces": ["Asphalt"], "lighted": false}}, {"type": "Feature", "geometry": {"type": "Point", "coordinates": [-73.762418, 40.659854]}, "properties": {"park_id": "Q107", "name": "Springfield Park", "borough": "Q", "court_count": 2, "surfaces": ["Asphalt"], "lighted": false}}, {"type": "Feature", "geometry": {"type": "Point", "coordinates": [-73.975468, 40.71537]}, "properties": {"park_id": "M144", "name": "John V. Lindsay East River Park", "borough": "M", "court_count": 12, "surfaces": ["Asphalt"], "lighted": false}}, {"type": "Feature", "geometry": {"type": "Point", "coordinates": [-73.954594, 40.72173]}, "properties": {"park_id": "B058", "name": "McCarren Park", "borough": "B", "court_count": 7, "surfaces": ["Asphalt"], "lighted": false}}, {"type": "Feature", "geometry": {"type": "Point", "coordinates": [-73.931663, 40.823394]}, "properties": {"park_id": "X344", "name": "Mill Pond Park", "borough": "X", "court_count": 16, "surfaces": ["Concrete"], "lighted": false}}, {"type": "Feature", "geometry": {"type": "Point", "coordinates": [-73.971165, 40.804424]}, "properties": {"park_id": "M071", "name": "Riverside Park", "borough": "M", "court_count": 20, "surfaces": ["Asphalt", "Clay"], "lighted": false}}, {"type": "Feature", "geometry": {"type": "Point", "coordinates": [-73.958903, 40.76528]}, "properties": {"park_id": "M079", "name": "St. Catherine's Park", "borough": "M", "court_count": 3, "surfaces": [], "lighted": false}}, {"type": "Feature", "geometry": {"type": "Point", "coordinates": [-73.870677, 40.765151]}, "properties": {"park_id": "Q373", "name": "Helen Marshall Playground", "borough": "Q", "court_count": 1, "surfaces": ["Asphalt"], "lighted": false}}, {"type": "Feature", "geometry": {"type": "Point", "coordinates": [-73.916732, 40.885442]}, "properties": {"park_id": "X201", "name": "Seton Park", "borough": "X", "court_count": 6, "surfaces": ["Asphalt"], "lighted": false}}, {"type": "Feature", "geometry": {"type": "Point", "coordinates": [-73.898661, 40.619999]}, "properties": {"park_id": "B166D", "name": "McGuire Fields", "borough": "B", "court_count": 3, "surfaces": ["Asphalt"], "lighted": false}}, {"type": "Feature", "geometry": {"type": "Point", "coordinates": [-73.773822, 40.674404]}, "properties": {"park_id": "Q413", "name": "Rochdale Park", "borough": "Q", "court_count": 6, "surfaces": ["Asphalt"], "lighted": false}}, {"type": "Feature", "geometry": {"type": "Point", "coordinates": [-73.928023, 40.68028]}, "properties": {"park_id": "B294", "name": "Jackie Robinson Park Playground", "borough": "B", "court_count": 4, "surfaces": ["Asphalt"], "lighted": false}}, {"type": "Feature", "geometry": {"type": "Point", "coordinates": [-73.768038, 40.598666]}, "properties": {"park_id": "Q007", "name": "Bayswater Park", "borough": "Q", "court_count": 6, "surfaces": ["Asphalt"], "lighted": false}}, {"type": "Feature", "geometry": {"type": "Point", "coordinates": [-74.017514, 40.625776]}, "properties": {"park_id": "B060", "name": "McKinley Park", "borough": "B", "court_count": 8, "surfaces": ["Asphalt"], "lighted": false}}, {"type": "Feature", "geometry": {"type": "Point", "coordinates": [-73.897457, 40.77303]}, "properties": {"park_id": "Q298", "name": "Paul Raimonda Playground", "borough": "Q", "court_count": 1, "surfaces": ["Asphalt"], "lighted": false}}, {"type": "Feature", "geometry": {"type": "Point", "coordinates": [-73.82732, 40.770241]}, "properties": {"park_id": "Q347", "name": "Colden Playground", "borough": "Q", "court_count": 1, "surfaces": ["Asphalt"], "lighted": false}}, {"type": "Feature", "geometry": {"type": "Point", "coordinates": [-73.999989, 40.689834]}, "properties": {"park_id": "B050", "name": "Van Voorhees Playground", "borough": "B", "court_count": 2, "surfaces": ["Asphalt"], "lighted": false}}, {"type": "Feature", "geometry": {"type": "Point", "coordinates": [-73.948015, 40.720244]}, "properties": {"park_id": "B346", "name": "Ericsson Playground", "borough": "B", "court_count": 1, "surfaces": ["Asphalt"], "lighted": false}}, {"type": "Feature", "geometry": {"type": "Point", "coordinates": [-73.938435, 40.813618]}, "properties": {"park_id": "M217", "name": "Howard Bennett Playground", "borough": "M", "court_count": 6, "surfaces": ["Asphalt"], "lighted": false}}, {"type": "Feature", "geometry": {"type": "Point", "coordinates": [-73.905125, 40.814318]}, "properties": {"park_id": "X233", "name": "Fountain Of Youth Playground", "borough": "X", "court_count": 1, "surfaces": ["Asphalt"], "lighted": false}}, {"type": "Feature", "geometry": {"type": "Point", "coordinates": [-73.976796, 40.719813]}, "properties": {"park_id": "M201", "name": "Wald Playground", "borough": "M", "court_count": 1, "surfaces": ["Asphalt"], "lighted": false}}, {"type": "Feature", "geometry": {"type": "Point", "coordinates": [-73.8166, 40.774769]}, "properties": {"park_id": "Q086", "name": "Flushing Fields", "borough": "Q", "court_count": 8, "surfaces": ["Asphalt"], "lighted": false}}, {"type": "Feature", "geometry": {"type": "Point", "coordinates": [-73.954369, 40.656481]}, "properties": {"park_id": "B267", "name": "Winthrop Playground", "borough": "B", "court_count": 2, "surfaces": ["Asphalt"], "lighted": false}}, {"type": "Feature", "geometry": {"type": "Point", "coordinates": [-73.911773, 40.760329]}, "properties": {"park_id": "Q014", "name": "Astoria Heights Playground", "borough": "Q", "court_count": 3, "surfaces": ["Asphalt"], "lighted": false}}, {"type": "Feature", "geometry": {"type": "Point", "coordinates": [-73.957747, 40.604634]}, "properties": {"park_id": "B051", "name": "Kelly Park Playground", "borough": "B", "court_count": 7, "surfaces": ["Asphalt"], "lighted": false}}, {"type": "Feature", "geometry": {"type": "Point", "coordinates": [-73.897505, 40.865324]}, "properties": {"park_id": "X044", "name": "St. James Park", "borough": "X", "court_count": 4, "surfaces": ["Asphalt"], "lighted": false}}, {"type": "Feature", "geometry": {"type": "Point", "coordinates": [-73.935557, 40.824785]}, "properties": {"park_id": "M159", "name": "Frederick Johnson Playground", "borough": "M", "court_count": 8, "surfaces": ["Asphalt", "Mondo"], "lighted": false}}, {"type": "Feature", "geometry": {"type": "Point", "coordinates": [-73.938534, 40.809348]}, "properties": {"park_id": "M204", "name": "Moore Playground", "borough": "M", "court_count": 1, "surfaces": ["Asphalt"], "lighted": false}}, {"type": "Feature", "geometry": {"type": "Point", "coordinates": [-73.941663, 40.761076]}, "properties": {"park_id": "Q429", "name": "Spirit Playground", "borough": "Q", "court_count": 2, "surfaces": ["Asphalt"], "lighted": false}}, {"type": "Feature", "geometry": {"type": "Point", "coordinates": [-73.955127, 40.810626]}, "properties": {"park_id": "M205", "name": "Playground One Twenty Five CXXV", "borough": "M", "court_count": 3, "surfaces": ["Asphalt"], "lighted": false}}, {"type": "Feature", "geometry": {"type": "Point", "coordinates": [-74.108732, 40.643172]}, "properties": {"park_id": "R015", "name": "Walker Park", "borough": "R", "court_count": 6, "surfaces": ["Asphalt"], "lighted": false}}, {"type": "Feature", "geometry": {"type": "Point", "coordinates": [-73.936385, 40.715984]}, "properties": {"park_id": "B025", "name": "Cooper Park", "borough": "B", "court_count": 2, "surfaces": ["Asphalt"], "lighted": false}}, {"type": "Feature", "geometry": {"type": "Point", "coordinates": [-74.001621, 40.595221]}, "properties": {"park_id": "B007", "name": "Bensonhurst Park", "borough": "B", "court_count": 8, "surfaces": ["Asphalt"], "lighted": false}}, {"type": "Feature", "geometry": {"type": "Point", "coordinates": [-73.972258, 40.683642]}, "properties": {"park_id": "B407", "name": "South Oxford Park", "borough": "B", "court_count": 2, "surfaces": ["Asphalt"], "lighted": false}}, {"type": "Feature", "geometry": {"type": "Point", "coordinates": [-73.819628, 40.600762]}, "properties": {"park_id": "Q460", "name": "Broad Channel Park", "borough": "Q", "court_count": 2, "surfaces": ["Asphalt"], "lighted": false}}, {"type": "Feature", "geometry": {"type": "Point", "coordinates": [-73.971931, 40.600115]}, "properties": {"park_id": "B244", "name": "McDonald Playground", "borough": "B", "court_count": 7, "surfaces": ["Asphalt"], "lighted": false}}, {"type": "Feature", "geometry": {"type": "Point", "coordinates": [-73.865727, 40.674796]}, "properties": {"park_id": "B380", "name": "Robert E. Venable Park", "borough": "B", "court_count": 1, "surfaces": ["Asphalt"], "lighted": false}}, {"type": "Feature", "geometry": {"type": "Point", "coordinates": [-73.780125, 40.693855]}, "properties": {"park_id": "Q051", "name": "Archie Spigner Park", "borough": "Q", "court_count": 2, "surfaces": ["Asphalt"], "lighted": false}}, {"type": "Feature", "geometry": {"type": "Point", "coordinates": [-73.951979, 40.695326]}, "properties": {"park_id": "B217", "name": "Marcy Playground", "borough": "B", "court_count": 1, "surfaces": ["Asphalt"], "lighted": false}}, {"type": "Feature", "geometry": {"type": "Point", "coordinates": [-73.884645, 40.676669]}, "properties": {"park_id": "B163", "name": "Sperandeo Brothers Playground", "borough": "B", "court_count": 3, "surfaces": ["Asphalt"], "lighted": false}}, {"type": "Feature", "geometry": {"type": "Point", "coordinates": [-74.09968, 40.576316]}, "properties": {"park_id": "R038A", "name": "Midland Field", "borough": "R", "court_count": 2, "surfaces": ["Asphalt"], "lighted": false}}, {"type": "Feature", "geometry": {"type": "Point", "coordinates": [-73.851328, 40.723796]}, "properties": {"park_id": "Q335", "name": "Russell Sage Playground", "borough": "Q", "court_count": 2, "surfaces": ["Asphalt"], "lighted": false}}, {"type": "Feature", "geometry": {"type": "Point", "coordinates": [-73.933388, 40.756794]}, "properties": {"park_id": "Q218", "name": "Dutch Kills Playground", "borough": "Q", "court_count": 4, "surfaces": ["Asphalt"], "lighted": false}}, {"type": "Feature", "geometry": {"type": "Point", "coordinates": [-73.759829, 40.75396]}, "properties": {"park_id": "Q400", "name": "Oakland Gardens", "borough": "Q", "court_count": 2, "surfaces": ["Asphalt"], "lighted": false}}, {"type": "Feature", "geometry": {"type": "Point", "coordinates": [-73.807194, 40.6672]}, "properties": {"park_id": "Q092", "name": "Police Officer Edward Byrne Park", "borough": "Q", "court_count": 4, "surfaces": ["Asphalt"], "lighted": false}}, {"type": "Feature", "geometry": {"type": "Point", "coordinates": [-73.949277, 40.702791]}, "properties": {"park_id": "B358", "name": "De Hostos Playground", "borough": "B", "court_count": 3, "surfaces": ["Asphalt"], "lighted": false}}, {"type": "Feature", "geometry": {"type": "Point", "coordinates": [-73.840165, 40.873903]}, "properties": {"park_id": "X196", "name": "Haffen Park", "borough": "X", "court_count": 6, "surfaces": ["Asphalt"], "lighted": true}}, {"type": "Feature", "geometry": {"type": "Point", "coordinates": [-73.839921, 40.885374]}, "properties": {"park_id": "X193", "name": "Stars & Stripes Playground", "borough": "X", "court_count": 2, "surfaces": ["Asphalt"], "lighted": false}}, {"type": "Feature", "geometry": {"type": "Point", "coordinates": [-73.87795, 40.878009]}, "properties": {"park_id": "X104", "name": "Williamsbridge Oval", "borough": "X", "court_count": 8, "surfaces": ["Asphalt"], "lighted": false}}, {"type": "Feature", "geometry": {"type": "Point", "coordinates": [-73.981489, 40.736135]}, "properties": {"park_id": "M227", "name": "Peter's Field", "borough": "M", "court_count": 3, "surfaces": ["Asphalt"], "lighted": false}}, {"type": "Feature", "geometry": {"type": "Point", "coordinates": [-74.012205, 40.717143]}, "properties": {"park_id": "M308", "name": "Washington Market Park", "borough": "M", "court_count": 1, "surfaces": ["Asphalt"], "lighted": false}}, {"type": "Feature", "geometry": {"type": "Point", "coordinates": [-73.936284, 40.681414]}, "properties": {"park_id": "B215", "name": "Decatur Playground", "borough": "B", "court_count": 1, "surfaces": ["Asphalt"], "lighted": false}}, {"type": "Feature", "geometry": {"type": "Point", "coordinates": [-73.972319, 40.618373]}, "properties": {"park_id": "B372", "name": "Friends Field", "borough": "B", "court_count": 2, "surfaces": ["Asphalt"], "lighted": false}}, {"type": "Feature", "geometry": {"type": "Point", "coordinates": [-73.734972, 40.761826]}, "properties": {"park_id": "Q369", "name": "Louis Pasteur Park", "borough": "Q", "court_count": 2, "surfaces": ["Asphalt"], "lighted": false}}, {"type": "Feature", "geometry": {"type": "Point", "coordinates": [-73.80791, 40.783441]}, "properties": {"park_id": "Q390", "name": "Clintonville Playground", "borough": "Q", "court_count": 2, "surfaces": ["Asphalt"], "lighted": false}}, {"type": "Feature", "geometry": {"type": "Point", "coordinates": [-73.931178, 40.647428]}, "properties": {"park_id": "B234", "name": "Tilden Playground", "borough": "B", "court_count": 1, "surfaces": ["Asphalt"], "lighted": false}}, {"type": "Feature", "geometry": {"type": "Point", "coordinates": [-74.231693, 40.531482]}, "properties": {"park_id": "R153", "name": "Fairview Park", "borough": "R", "court_count": 2, "surfaces": ["Asphalt"], "lighted": false}}, {"type": "Feature", "geometry": {"type": "Point", "coordinates": [-73.8421, 40.751731]}, "properties": {"park_id": "Q099", "name": "Flushing Meadows Corona Park", "borough": "Q", "court_count": 12, "surfaces": ["Asphalt"], "lighted": false}}, {"type": "Feature", "geometry": {"type": "Point", "coordinates": [-73.845978, 40.737498]}, "properties": {"park_id": "Q084A", "name": "Grand Central Parkway Extension", "borough": "Q", "court_count": 1, "surfaces": ["Asphalt"], "lighted": false}}, {"type": "Feature", "geometry": {"type": "Point", "coordinates": [-73.98825, 40.780654]}, "properties": {"park_id": "M353", "name": "Riverside Park South", "borough": "M", "court_count": 1, "surfaces": ["Natural"], "lighted": false}}, {"type": "Feature", "geometry": {"type": "Point", "coordinates": [-73.949624, 40.769071]}, "properties": {"park_id": "M045", "name": "John Jay Park", "borough": "M", "court_count": 1, "surfaces": ["Asphalt"], "lighted": false}}, {"type": "Feature", "geometry": {"type": "Point", "coordinates": [-73.888291, 40.754001]}, "properties": {"park_id": "Q502", "name": "Rory Staunton Field", "borough": "Q", "court_count": 2, "surfaces": ["Asphalt"], "lighted": false}}]}
